[{"OBJECT_NAME":"TRANSPORTER-10 OBJECT AD","OBJECT_ID":"2024-043AD","EPOCH":"2026-03-09T20:38:52.416960","MEAN_MOTION":15.34189901,"ECCENTRICITY":0.00089841,"INCLINATION":97.547,"RA_OF_ASC_NODE":207.3753,"ARG_OF_PERICENTER":221.4908,"MEAN_ANOMALY":138.5653,"EPHEMERIS_TYPE":0,"CLASSIFICATION_TYPE":"U","NORAD_CAT_ID":59125,"ELEMENT_SET_NO":999,"REV_AT_EPOCH":11202,"BSTAR":0.00036310552,"MEAN_MOTION_DOT":0.00011954,"MEAN_MOTION_DDOT":0},{"OBJECT_NAME":"STARLINK-35336","OBJECT_ID":"2025-232B","EPOCH":"2026-03-09T09:08:00.187008","MEAN_MOTION":15.30196365,"ECCENTRICITY":0.00012015,"INCLINATION":53.1582,"RA_OF_ASC_NODE":104.9612,"ARG_OF_PERICENTER":92.3455,"MEAN_ANOMALY":267.7684,"EPHEMERIS_TYPE":0,"CLASSIFICATION_TYPE":"U","NORAD_CAT_ID":66006,"ELEMENT_SET_NO":999,"REV_AT_EPOCH":2338,"BSTAR":0.0007853787,"MEAN_MOTION_DOT":0.00022971,"MEAN_MOTION_DDOT":0}]
